#aV2010  6 19  0  0   .00000000      96 DD+AD WGS84 FIT  NGA
## 1588 518400.00000000   900.00000000 55366  .0000000000000
+   31     1  2  3  4  5  6  7  8  9 10 11 12 13 14 15 16 17
+         18 19 20 21 22 23 24 26 27 28 29 30 31 32  0  0  0
+          0  0  0  0  0  0  0  0  0  0  0  0  0  0  0  0  0
+          0  0  0  0  0  0  0  0  0  0  0  0  0  0  0  0  0
+          0  0  0  0  0  0  0  0  0  0  0  0  0  0  0  0  0
++         0  0  0  0  0  0  0  0  0  0  0  0  0  0  0  0  0
++         0  0  0  0  0  0  0  0  0  0  0  0  0  0  0  0  0
++         0  0  0  0  0  0  0  0  0  0  0  0  0  0  0  0  0
++         0  0  0  0  0  0  0  0  0  0  0  0  0  0  0  0  0
++         0  0  0  0  0  0  0  0  0  0  0  0  0  0  0  0  0
%c cc cc ccc ccc cccc cccc cccc cccc ccccc ccccc ccccc ccccc
%c cc cc ccc ccc cccc cccc cccc cccc ccccc ccccc ccccc ccccc
%f  0.0000000  0.000000000  0.00000000000  0.000000000000000
%f  0.0000000  0.000000000  0.00000000000  0.000000000000000
%i    0    0    0    0      0      0      0      0         0
%i    0    0    0    0      0      0      0      0         0
/*      NGA, ST. LOUIS,MO.                                  
/*   EPHEMERIS COMPUTED FROM  3 DAYS OF DATA                
/* CCCCCCCCCCCCCCCCCCCCCCCCCCCCCCCCCCCCCCCCCCCCCCCCCCCCCCCCC
/* CCCCCCCCCCCCCCCCCCCCCCCCCCCCCCCCCCCCCCCCCCCCCCCCCCCCCCCCC
*  2010  6 19 12  0   .00000000                                                 
P  1 -22126.893034  -7301.928930 -13029.137011   -132.324231                    
V  1  16062.783738  -3278.431782 -25531.399874      -.040070                    
P  2  17180.763425  -2276.375678 -20021.482231    265.927998                    
V  2  -9419.945305  23839.496414 -11261.371404       .032557                    
P  3 -19833.974945  -3062.049667  17193.556183    570.439053                    
V  3 -13238.698508 -18362.640533 -17810.800590       .051310                    
P  4  11332.446434  11874.417352 -20996.677876    107.184754                    
V  4 -12342.804883  23371.679838   6968.821294       .081281                    
P  5  26507.410719  -2285.945885    317.116000     -8.206963                    
V  5    637.976188   2785.609390 -31640.640787      -.022735                    
P  6 -20313.837296  -7848.554436  15488.134874    602.606914                    
V  6  -9806.852495 -16862.222615 -21503.991207      -.129748                    
P  7  -4620.577180  24280.076345   9474.980710     -1.304065                    
V  7  -7418.691518   9834.708517 -28949.487013      -.002348                    
P  8   4025.922305  17868.233672  19008.603276      5.816101                    
V  8 -13139.569017  20455.671605 -16948.344973       .001365                    
P  9  15145.614322 -19819.741114   8518.667469     13.423152                    
V  9  -2762.358600  11445.592539  29687.117238       .020778                    
P 10  24254.418522   5736.838803  -9845.200217    -44.975123                    
V 10 -11998.126602   3043.172925 -27974.125110      -.009122                    
P 11 -10483.962891  23225.187775   6544.065326    -70.031045                    
V 11  -3169.330226  -9734.103580  28693.500246      -.024668                    
P 12  17529.186108 -11963.915601 -15827.497967   -102.489382                    
V 12  20293.169320    526.117217  22165.037366       .041288                    
P 13   1993.197307  22218.257977 -14529.424689    303.070743                    
V 13 -10319.768473 -15004.079389 -24633.926748      -.004703                    
P 14 -15627.997250 -21291.861057  -3298.874645     58.729651                    
V 14   -650.237412  -4684.540525  31852.899394       .042040                    
P 15  14281.892317  -6262.320649  21523.818900   -253.606022                    
V 15  15515.356937  22479.545601  -3639.645784       .065110                    
P 16 -26188.802599  -2055.270575  -4809.103909    -82.942527                    
V 16   5990.510528  -2440.168949 -31057.643332      -.036698                    
P 17  15215.550371  21868.338920  -1259.114681    157.461927                    
V 17  -1303.019779   2889.350367  31547.836639       .020880                    
P 18  -1607.190575 -15786.843478  21580.832655     75.622612                    
V 18  26810.636091  -1323.032758    658.882451       .024034                    
P 19 -14115.184862   6081.744934  21705.566694    -43.391332                    
V 19 -13614.508986 -23874.326324  -1857.289467      -.027802                    
P 20 -15374.155816  13954.805118 -16667.909469     54.443443                    
V 20 -21125.832992      3.351035  19695.430869      -.005015                    
P 21    834.681926 -23092.891650  12857.847653    -68.163423                    
V 21  10157.282117 -12928.873313 -25165.757507      -.026093                    
P 22 -14584.273428 -12837.679290  18315.210258    169.382256                    
V 22  22863.575518  -2890.590258  16232.703573      -.006257                    
P 23  -5372.136044  16637.755225 -19920.715755    366.396710                    
V 23 -15101.587194 -20358.647615 -13263.931641      -.015058                    
P 24 -10244.279233 -12740.966832  21071.141180    297.491031                    
V 24  13280.787100 -22981.770431  -7227.087388       .031981                    
P 26  12607.829265  -6778.609029  21812.915218    -68.435218                    
V 26  14822.826961  24910.094776   -401.994431      -.056765                    
P 27  16606.121727 -16193.249787  13461.730603    162.433299                    
V 27  -4595.924580  15439.748080  25708.355267       .034990                    
P 28  12004.854862  13330.064538  20157.153091    -13.083357                    
V 28 -24386.810812   1757.998538  13408.057927       .011086                    
P 29  -1972.819564 -22082.885072 -14564.246390    128.536555                    
V 29  11778.432159  14598.771705 -23537.611273       .028571                    
P 30   5604.342403 -15650.181363 -21105.704387    253.229327                    
V 30  25822.421283  -2282.623011   8766.117149       .033110                    
P 31 -11840.401823  -9173.176343 -21716.131594    -29.888519                    
V 31  12584.112331 -25052.201721   3856.750142       .023331                    
P 32 -22198.122824   7877.470802 -11589.884267    -19.117325                    
V 32 -15337.593446  -2943.624044  26938.664762      -.084839                    
EOF
